ONEWEB-0504             
1 54122U 22138K   25129.78291646 -.00000054  00000+0 -16743-3 0  9996
2 54122  87.9253  25.1481 0001714  70.9899 289.1419 13.19728301124495
ONEWEB-0505             
1 54123U 22138L   25129.77975723  .00000029  00000+0  40523-4 0  9995
2 54123  87.9253  25.1391 0001405  66.0482 294.0798 13.19724119123607
ONEWEB-0506             
1 54124U 22138M   25129.75448273  .00000035  00000+0  55185-4 0  9996
2 54124  87.9251  25.1411 0001700  76.3100 283.8222 13.19727896123599
ONEWEB-0507             
1 54125U 22138N   25129.77502542 -.00000078  00000+0 -22632-3 0  9998
2 54125  87.9262  25.1859 0001589  79.0316 281.0996 13.19727376123649
ONEWEB-0508             
1 54126U 22138P   25129.77186262  .00000015  00000+0  55627-5 0  9997
2 54126  87.9258  25.1707 0001410  79.7785 280.3506 13.19724056123626
ONEWEB-0509             
1 54127U 22138Q   25129.74659120  .00000087  00000+0  18418-3 0  9997
2 54127  87.9250  25.1405 0001728  77.0991 283.0334 13.19727491123597
ONEWEB-0510             
1 54128U 22138R   25130.10532751 -.00000249  00000+0 -64361-3 0  9990
2 54128  87.9288 354.7014 0002430  87.9291 272.2120 13.20769466126978
ONEWEB-0511             
1 54129U 22138S   25129.74343405  .00000076  00000+0  15771-3 0  9992
2 54129  87.9249  25.1465 0001991  71.7500 288.3850 13.19726922123625
